#dP2022  5 27  0  0  0.00000000      97 __u+U IGS14 FIT  IAC
## 2211 432000.00000000   900.00000000 59726 0.0000000000000
+  116   C06C07C08C09C10C11C12C13C14C16C19C20C21C22C23C24C25
+        C26C27C28C29C30C32C33C34C35C36C37C38C39C40C41C42C43
+        C44C45C46E01E02E03E04E05E07E08E09E10E11E12E13E14E15
+        E18E19E21E24E25E26E27E30E31E33E34E36G01G02G03G04G05
+        G06G07G08G09G10G11G13G14G15G16G17G18G19G20G21G22G23
+        G24G25G26G27G28G29G30G31G32J02J03R01R02R03R04R05R07
+        R08R09R11R12R13R14R15R17R18R19R20R21R22R24  0  0  0
++         7  7  8  7  7  7  7  8  7  7  5  5  6  6  6  5  6
++         5  5  6  5  5  5  6  6  5  6  6  6  7  6  6  6  6
++         6  6  6  4  4  4  4  4  4  4  5  4  4  4  4  4  4
++         6  4  4  4  4  4  4  4  4  4  4  5  3  3  3  3  3
++         3  3  3  3  3  3  3  3  4  3  4  3  4  3  3  4  3
++         3  3  4  3  4  3  3  4  3  9  9  6  6  6  6  6  6
++         6  6  6  6  6  6  6  6  6  7  7  6  7  6  0  0  0
%c M  cc GPS ccc cccc cccc cccc cccc ccccc ccccc ccccc ccccc
%c cc cc ccc ccc cccc cccc cccc cccc ccccc ccccc ccccc ccccc
%f  1.2500000  1.025000000  0.00000000000  0.000000000000000
%f  0.0000000  0.000000000  0.00000000000  0.000000000000000
%i    0    0    0    0      0      0      0      0         0
%i    0    0    0    0      0      0      0      0         0
/* INFORMATION & ANALYSIS CENTER (IAC)            FINAL DATA
/* S/V CLOCKS ARE ALIGNED TO GNSS TIME                      
/* G:C1WC2W R:C1PC2P E:C1XC5X C:C2IC6I J:C1CC2S             
/* PCV:IGS14_2196 OL/AL:FES2004  NONE     YN ORB:CoN CLK:CoN
*  2022 05 27  9 30  0.00000000
PC06 -17767.672289  30347.802722 -23402.699593     67.067008
PC07  -6005.542001  39457.994948 -13353.814393   -220.107531
PC08  -2893.164676  21641.720584  36090.462753    333.554928
PC09 -11196.046468  29052.606322 -28284.978027   -826.231228
PC10    542.131798  41402.118413  -6189.747528    130.022634
PC11  -9470.474561  19757.403053  17322.902060    377.483757
PC12 -22614.239822  16276.255916   1465.566068   -609.501089
PC13   4504.216343  25352.321116  33574.802397    -21.064739
PC14  -1203.214121  27366.729701   5173.992919    485.005161
PC16 -21186.767941  29989.578321 -20778.462943    135.062520
PC19  -5363.270304 -27055.336404   4362.358337    865.657960
PC20   6335.243416 -24275.014473 -12239.700074   -932.247948
PC21 -15030.316080   6579.745678  22590.404724   -368.796054
PC22 -14416.313727 -14356.809956  19120.019221   -967.529716
PC23  24310.915446  13485.848791  -2406.502540   -930.914597
PC24 -10361.016657  12935.634607 -22455.919859   -969.992006
PC25  11448.605836  18674.970410 -17305.751546   -730.674736
PC26 -23622.742816   1065.410327 -14802.383866    732.018247
PC27  24748.214109 -10689.883371   7156.346193    729.602131
PC28  18629.716067   4402.956463  20303.705695     71.542056
PC29  -1706.361135 -17444.747183 -21725.051190    560.228137
PC30  16484.648971 -20337.993662  -9642.221459    499.075319
PC32  14974.656044  -6695.962764 -22557.749084   -964.711396
PC33   5438.996749  27028.158846  -4229.064371   -966.636848
PC34 -15765.255228  20505.213555  10491.577970   -394.341191
PC35 -18122.608985  -4684.996951 -20720.858307    292.946928
PC36 -10452.229485 -18939.619438  17654.906970   -965.309706
PC37  24199.853742    421.556742  13922.453210   -908.600628
PC38 -11778.227912  20092.183006  35172.055176    235.053499
PC39 -24550.126640  30707.040034 -15447.517704     34.977847
PC40 -10733.995697  36746.674776 -17500.737415    272.457604
PC41  14332.504880  14774.597852 -18783.874836   -966.986695
PC42  -7029.825199  23593.167324  13165.231328   -967.514916
PC43    947.403389  17876.735030  21399.713061   -921.705315
PC44 -24425.402282  11367.396582  -7358.271069    672.907535
PC45 -24424.140880 -13307.914668   2145.384404    767.755812
PC46   8774.048933 -13674.999122  22694.464573   -346.664998
PE01 -13601.272569 -25755.928374   5269.061983   -484.505345
PE02  13721.107422  25734.380629  -5107.430901    301.805690
PE03   3808.455922  22819.361050 -18451.586916   -562.541325
PE04 -16339.530049  -5255.812964  24128.135797  -1036.898291
PE05 -11228.354592  27326.176501  -1799.300386   -177.784274
PE07  19488.719296 -15891.762216 -15611.811989   -672.583158
PE08  16339.595980   4840.982820 -24195.027437   -536.180825
PE09 -19344.000403  16043.518569  15635.978091   -532.535962
PE10 -29491.247906   1691.382009  -1912.098625   -515.707661
PE11 -27241.812897   8036.639954   8355.099959   3544.005895
PE12 -26979.027965  -4772.414589 -11239.953541   4593.224227
PE13  27511.507453  -7696.396514  -7733.394827    428.933614
PE14   7824.817768 -28500.753100 -11872.227616  -1825.539187
PE15  26895.944513   4760.578289  11394.913028    743.132837
PE18 -11024.645067  21316.324614   4230.173049  -1400.516389
PE19  -1762.856788 -24230.317973  16922.802542  -5358.803176
PE21   1245.800847 -21834.513958  19945.853288   -736.612200
PE24 -17084.713417   3974.884385 -23853.127613   -637.561256
PE25  -1480.316016  21678.481889 -20096.676700   -575.420363
PE26  10970.915330 -15819.531368 -22486.691528  -1192.503211
PE27  16388.171002  -5182.741237  24101.228071   -308.236153
PE30  21633.909300  15275.442831  13223.484979   -543.745292
PE31 -21743.169606 -14367.040832 -14028.920696   -497.293939
PE33 -10436.497955 -14342.924018 -23701.382691   -456.235116
PE34  10671.658608  14261.727051  23629.746245   -519.128500
PE36 -11989.363875  15533.480014  22162.114941   -379.517793
PG01 -13033.059039 -13287.014307 -19386.493899    354.065532
PG02 -10697.187516  14539.732566  20186.357826   -653.111442
PG03 -12795.757667 -23346.642728     87.843354   -258.723400
PG04  -4406.927668 -17749.978350  19238.969711   -163.264758
PG05   2622.078359  22589.203913  13432.058008    -83.341770
PG06 -23668.704261   6217.498608  10487.237132    319.433782
PG07 -24994.771910  -6312.144842   7796.431429    322.207273
PG08   2306.684278 -22614.633208 -13480.967869    -69.664431
PG09 -13017.917190  -8108.831462  21617.948572   -333.487860
PG10  16580.179235   1047.738132 -20643.811083   -430.637661
PG11 -12021.618003  12892.428794  19856.525541    -20.291584
PG13 -11993.826917  22533.203230  -7155.477227    318.989950
PG14 -17189.882021  -2451.766961 -20124.606753   -109.916798
PG15   1385.245258  22600.849529 -14046.449761    -58.007338
PG16   3792.547090 -19920.256556  16631.554243   -504.310039
PG17 -19142.675266   8973.864375 -15675.078216    617.698085
PG18  24588.762000   6471.440063   7867.099699    158.990289
PG19 -19771.951288  14572.667157 -10087.605004    162.738642
PG20  -5649.577119  16518.380380  20079.041266    513.938501
PG21  -2760.938591 -14767.947626 -21295.524517    161.224233
PG22  18602.282904 -17375.109704  -6834.099223    265.850764
PG23  18668.737168  11728.949820 -14896.349291    -24.484688
PG24   9228.782654  14678.654404 -20514.565215    233.342093
PG25  17211.755595  18275.855954   8789.259662    329.894591
PG26  11180.765791 -11372.726727  21121.793922    208.407513
PG27  12120.289754 -23272.222662  -2564.675641    208.847363
PG28 -13057.295593   7079.459738 -21516.567772    350.256035
PG29  11825.405641   8831.119490  22028.596310   -517.923956
PG30 -26621.240848    330.316515  -1945.978964   -529.394933
PG31  22561.093554  -7523.338958  12163.521052   -179.323815
PG32  18807.967431 -11617.343750 -14434.016325   -136.686979
PJ02 -20590.571188  20922.887094 -25661.824162     -0.300135
PJ03 -29477.090820  29371.487097  12242.496488     -2.434700
PR01  -2219.424958  25397.567444    535.430114      9.158965
PR02   6305.289361  17598.315187 -17338.209546    519.590672
PR03  10986.277553   -340.033204 -22966.840324     57.364136
PR04   9284.998557 -17757.299760 -15746.613936    143.503926
PR05   2661.158899 -25357.932558    183.511142     93.571652
PR07 -11085.927416   1252.691309  22984.896875     35.626606
PR08  -9317.192215  17866.818863  15717.156653    -65.354398
PR09 -19229.413317 -16124.596857   4810.894415     57.268319
PR11 -11505.087878   4811.097163 -22243.177810     37.924050
PR12   5805.266024  15492.283955 -19395.037997     18.637111
PR13  18520.507110  16438.639512  -6128.391387    -22.866515
PR14  21005.477506   7493.297240  12375.611768     25.512603
PR15  10899.574728  -5428.877533  22433.350500     95.841465
PR17  22617.806078  -4626.341321  10889.512522    529.651673
PR18  21574.360410 -12232.650644  -5837.298859    118.251623
PR19  10724.086081 -13367.357973 -18900.675338   -190.503024
PR20 -10166.624173  -6639.983446 -22438.647974    -71.384964
PR21 -23024.625867   5384.216264  -9545.343436   -304.566868
PR22 -21367.918680  12344.458724   6636.454713   -185.758913
PR24  11125.956494   6444.148939  22042.001436     95.739173
EOF
